gid,code,name,name_en,status,lon,lat
265,324,ขท.ภูเก็ต,PHUKET HIGHWAY DISTRICT,TRUE,98.395443,7.887769
297,423,ขท.จันทบุรี,CHANTHABURI HIGHWAY DISTRICT,TRUE,102.104605,12.615612
355,639,ขท.มุกดาหาร,MUKDAHAN HIGHWAY DISTRICT,TRUE,104.691864,16.52828
259,622,ขท.มหาสารคาม,MAHA SARAKHAM HIGHWAY DISTRICT,TRUE,103.290739,16.202623
412,638,ขท.ศรีสะเกษที่ 1,SI SA KET 1 HIGHWAY DISTRICT,TRUE,104.333501,15.099724
411,636,ขท.ศรีสะเกษที่ 2,SI SA KET 2 HIGHWAY DISTRICT,TRUE,104.6294444,15.8575
294,419,ขท.ธนบุรี,THON BURI HIGHWAY DISTRICT,TRUE,100.468999,13.788363
404,621,ขท.ขอนแก่นที่ 1,KHON KAEN 1 HIGHWAY DISTRICT,TRUE,102.806264,16.729855
439,627,ขท.ขอนแก่นที่ 2 (ชุมแพ),KHON KAEN 2 (CHUM PHAE) HIGHWAY DISTRICT,TRUE,102.0977366,16.54579701
440,628,ขท.ขอนแก่นที่ 3 (บ้านไผ่),KHON KAEN 3 (BAN PHAI) HIGHWAY DISTRICT,TRUE,102.7315538,16.05811107
428,333,ขท.ประจวบคีรีขันธ์ (หัวหิน),PRACHUAP KHIRI KHAN (HUA HIN) HIGHWAY DISTRICT,TRUE,99.95223986,12.57713445
449,618,ขท.ปราจีนบุรี,PRACHIN BURI HIGHWAY DISTRICT,TRUE,101.357236,14.056762
270,313,ขท.ปัตตานี,PATTANI HIGHWAY DISTRICT,TRUE,101.2466645,6.868325098
430,416,ขท.ปทุมธานี,PATHUM THANI HIGHWAY DISTRICT,TRUE,100.6175731,14.12586523
269,312,ขท.ยะลา,YALA HIGHWAY DISTRICT,TRUE,101.2888218,6.560214089
421,633,ขท.ยโสธร,YASOTHON HIGHWAY DISTRICT,TRUE,104.1583472,15.78181315
375,426,ขท.ระยอง,RAYONG HIGHWAY DISTRICT,TRUE,101.25824,12.688407
267,331,ขท.ระนอง,RANONG HIGHWAY DISTRICT,TRUE,131.244116,9.96623
429,335,ขท.ราชบุรี,RATCHABURI HIGHWAY DISTRICT,TRUE,99.791452,13.52509
261,635,ขท.ร้อยเอ็ด,ROI ET HIGHWAY DISTRICT,TRUE,151.217466,16.082762
390,523,ขท.ลำปางที่ 1,LAMPANG 1 HIGHWAY DISTRICT,TRUE,99.47583,21.276669
392,528,ขท.ลำปางที่ 2,LAMPANG 2 HIGHWAY DISTRICT,TRUE,99.477059,21.303444
322,524,ขท.ลำพูน,LAMPHUN HIGHWAY DISTRICT,TRUE,98.9976,21.56986
377,431,ขท.ลพบุรีที่ 1,LOP BURI 1 HIGHWAY DISTRICT,TRUE,100.6562962,14.79884831
431,435,ขท.ลพบุรีที่ 2 (ลำนารายณ์),LOP BURI 2 (LAM NARAI) HIGHWAY DISTRICT,TRUE,101.1314006,15.20864381
360,646,ขท.หนองคาย,NONG KHAI HIGHWAY DISTRICT ,TRUE,102.7148866,17.87662416
443,629,ขท.หนองบัวลำภู,NONG BUA LAM PHU HIGHWAY DISTRICT,TRUE,102.3969444,17.23638889
463,322,ขท.ตรัง,TRANG HIGHWAY DISTRICT,TRUE,99.601622,7.599758
374,425,ขท.ตราด,TRAT HIGHWAY DISTRICT,TRUE,102.4752879,12.30099854
363,512,ขท.ตากที่ 1,TAK 1 HIGHWAY DISTRICT ,TRUE,99.11265754,16.88202794
420,514,ขท.ตากที่ 2 (แม่สอด),TAK 2 (MAE SOT) HIGHWAY DISTRICT,TRUE,98.59341456,16.72212498
295,421,ขท.ฉะเชิงเทรา,CHACHOENGSAO HIGHWAY DISTRICT,TRUE,101.061634,13.694577
287,411,ขท.กรุงเทพ,BANGKOK HIGHWAY DISTRICT,TRUE,100.589077,13.895867
264,323,ขท.กระบี่,KRABI HIGHWAY DISTRICT,TRUE,98.914793,8.078799
262,647,ขท.กาฬสินธุ์,KALASIN HIGHWAY DISTRICT,TRUE,103.521068,16.417809
308,444,ขท.กาญจนบุรี,KANCHANABURI HIGHWAY DISTRICT,TRUE,99.50234446,14.05360064
258,517,ขท.กำแพงเพชร,KAMPHAENG PHET HIGHWAY DISTRICT,TRUE,99.50787463,16.43874136
405,623,ขท.อุดรธานีที่ 1,UDON THANI 1 HIGHWAY DISTRICT,TRUE,102.763356,17.387256
438,624,ขท.อุดรธานีที่ 2 (หนองหาน),UDON THANI 2 (NONG HAN) HIGHWAY DISTRICT,TRUE,103.15641,17.362513
386,557,ขท.อุตรดิตถ์ที่ 1,UTTARADIT 1 HIGHWAY DISTRICT,TRUE,100.0967231,17.63148298
387,558,ขท.อุตรดิตถ์ที่ 2,UTTARADIT 2 HIGHWAY DISTRICT,TRUE,100.1629115,17.67183839
311,447,ขท.อุทัยธานี,UTHAI THANI HIGHWAY DISTRICT,TRUE,100.0196782,15.40170836
409,631,ขท.อุบลราชธานีที่ 1,UBON RATCHATHANI 1 HIGHWAY DISTRICT,TRUE,104.521455,15.384187
410,632,ขท.อุบลราชธานีที่ 2,UBON RATCHATHANI 2 HIGHWAY DISTRICT,TRUE,105.059672,14.913539
446,413,ขท.อยุธยา,AYUTTHAYA HIGHWAY DISTRICT,TRUE,100.587945,14.352538
469,634,ขท.อำนาจเจริญ,AMNAT CHAROEN HIGHWAY DISTRICT,TRUE,104.630828,15.857589
312,448,ขท.อ่างทอง,ANG THONG HIGHWAY DISTRICT,TRUE,100.4518617,14.48684314
292,417,ขท.สมุทรปราการ,SAMUT PRAKAN HIGHWAY DISTRICT,TRUE,100.646141,13.668811
285,337,ขท.สมุทรสงคราม,SAMUT SONGKHRAM HIGHWAY DISTRICT,TRUE,99.988782,13.382648
290,415,ขท.สมุทรสาคร,SAMUT SAKHON HIGHWAY DISTRICT,TRUE,100.321722,13.70417
303,433,ขท.สิงห์บุรี,SING BURI HIGHWAY DISTRICT,TRUE,100.4468829,14.82442189
349,615,ขท.สุรินทร์,SURIN HIGHWAY DISTRICT,TRUE,103.501253,14.900121
424,325,ขท.สุราษฎร์ธานีที่ 1 (พุนพิน),SURAT THANI 1 (PHUNPHIN) HIGHWAY DISTRICT,TRUE,99.23453,9.10891
426,328,ขท.สุราษฎร์ธานีที่ 2 (กาญจนดิษฐ์),SURAT THANI 2 (KANCHANADIT) HIGHWAY DISTRICT,TRUE,99.52314053,9.157929283
427,329,ขท.สุราษฎร์ธานีที่ 3 (เวียงสระ),SURAT THANI 3 (WIANG SA) HIGHWAY DISTRICT,TRUE,99.351414,8.631399
381,441,ขท.สุพรรณบุรีที่ 1,SUPHAN BURI 1 HIGHWAY DISTRICT,TRUE,100.1218048,14.48220893
433,445,ขท.สุพรรณบุรีที่ 2 (อู่ทอง),SUPHAN BURI 2 (U THONG) HIGHWAY DISTRICT,TRUE,99.85461289,14.29395365
464,513,ขท.สุโขทัย,SUKHOTHAI HIGHWAY DISTRICT,TRUE,99.85844967,17.01819317
302,432,ขท.สระบุรี,SARABURI HIGHWAY DISTRICT,TRUE,100.9070913,14.54873416
437,619,ขท.สระแก้ว (วัฒนานคร),SA KAEO (WATTHANA NAKHON) HIGHWAY DISTRICT,TRUE,102.3217519,13.75573591
368,311,ขท.สงขลาที่ 1,SONGKHLA 1 HIGHWAY DISTRICT,TRUE,100.59346,7.20301
423,319,ขท.สงขลาที่ 2 (นาหม่อม),SONGKHLA 2 (NA MOM) HIGHWAY DISTRICT,TRUE,100.59345,7.20302
273,318,ขท.สตูล,SATUN HIGHWAY DISTRICT,TRUE,100.07185,6.67712
413,641,ขท.สกลนครที่ 1,SAKON NAKHON 1 HIGHWAY DISTRICT,TRUE,104.143065,17.170233
442,642,ขท.สกลนครที่ 2 (สว่างแดนดิน),SAKON NAKHON 2 (SAWANG DAEN DIN) HIGHWAY DISTRICT,TRUE,151.275181,17.47212759
419,332,ขท.ชุมพร,CHUMPHON HIGHWAY DISTRICT,TRUE,99.117568,10.550682
340,617,ขท.บุรีรัมย์,BURI RAM HIGHWAY DISTRICT,TRUE,103.092357,14.948785
373,422,ขท.ชลบุรีที่ 1,CHON BURI 1 HIGHWAY DISTRICT,TRUE,100.9888312,13.40414828
376,428,ขท.ชลบุรีที่ 2,CHON BURI 2 HIGHWAY DISTRICT,TRUE,100.915604,13.298757
346,626,ขท.ชัยภูมิ,CHAIYAPHUM HIGHWAY DISTRICT,TRUE,102.04521,15.820733
383,446,ขท.ชัยนาท,CHAI NAT HIGHWAY DISTRICT,TRUE,100.1291376,15.18952624
358,643,ขท.บึงกาฬ,BUENG KAN HIGHWAY DISTRICT,TRUE,103.621382,21.375799
444,321,ขท.นครศรีธรรมราชที่ 1,NAKHON SI THAMMARAT 1 HIGHWAY DISTRICT,TRUE,99.946816,8.434135
445,326,ขท.นครศรีธรรมราชที่ 2 (ทุ่งสง),NAKHON SI THAMMARAT 2 (THUNG SONG) HIGHWAY DISTRICT,TRUE,99.62266227,8.17968931
284,336,ขท.นครปฐม,NAKHON PATHOM HIGHWAY DISTRICT,TRUE,100.040581,13.805742
401,611,ขท.นครราชสีมาที่ 1,NAKHON RATCHASIMA 1 HIGHWAY DISTRICT,TRUE,102.111866,14.983448
402,612,ขท.นครราชสีมาที่ 2,NAKHON RATCHASIMA 2 HIGHWAY DISTRICT,TRUE,102.110783,14.983398
403,614,ขท.นครราชสีมาที่ 3,NAKHON RATCHASIMA 3 HIGHWAY DISTRICT,TRUE,102.1541667,14.91222222
379,437,ขท.นครสวรรค์ที่ 1,NAKHON SAWAN 1 HIGHWAY DISTRICT,TRUE,100.1356047,15.70938621
432,438,ขท.นครสวรรค์ที่ 2 (ตากฟ้า),NAKHON SAWAN 2 (TAK FA) HIGHWAY DISTRICT,TRUE,100.5039295,15.33334944
289,414,ขท.นครนายก,NAKHON NAYOK HIGHWAY DISTRICT,TRUE,101.0367724,14.1824785
359,644,ขท.นครพนม,NAKHON PHANOM HIGHWAY DISTRICT,TRUE,104.793451,17.370357
272,317,ขท.นราธิวาส,NARATHIWAT HIGHWAY DISTRICT,TRUE,101.8174137,6.418611227
293,418,ขท.นนทบุรี,NONTHABURI HIGHWAY DISTRICT,TRUE,100.478681,13.87106
394,536,ขท.น่านที่ 1,NAN 1 HIGHWAY DISTRICT,TRUE,100.7565119,21.7513533
396,539,ขท.น่านที่ 2,NAN 2 HIGHWAY DISTRICT,TRUE,100.7505844,21.89014319
316,519,ขท.พิจิตร,PHICHIT HIGHWAY DISTRICT,TRUE,100.3719309,16.35667497
384,511,ขท.พิษณุโลกที่ 1,PHITSANULOK 1 HIGHWAY DISTRICT,TRUE,100.270275,16.81220627
434,515,ขท.พิษณุโลกที่ 2 (วังทอง),PHITSANULOK 2 (WANG THONG) HIGHWAY DISTRICT,TRUE,100.4846376,16.86626638
456,261,ขท.พิเศษระหว่างเมือง,INTER-CITY MOTORWAY DISTRICT,TRUE,100.784145,13.723354
422,327,ขท.พังงา,PHANGNGA HIGHWAY DISTRICT,TRUE,98.531313,8.458701
466,314,ขท.พัทลุง,PHATTHALUNG HIGHWAY DISTRICT,TRUE,100.071865,7.614615
328,535,ขท.พะเยา,PHAYAO HIGHWAY DISTRICT,TRUE,99.88200155,19.18461141
399,554,ขท.เลยที่ 1,LOEI 1 HIGHWAY DISTRICT,TRUE,101.720437,17.495454
436,555,ขท.เลยที่ 2 (ด่านซ้าย),LOEI 2 (DAN SAI) HIGHWAY DISTRICT,TRUE,101.138749,17.282798
393,533,ขท.เชียงรายที่ 1,CHIANG RAI 1 HIGHWAY DISTRICT,TRUE,99.83184209,19.9004657
395,537,ขท.เชียงรายที่ 2,CHIANG RAI 2 HIGHWAY DISTRICT,TRUE,100.3303893,19.46398476
388,521,ขท.เชียงใหม่ที่ 1,CHIANG MAI 1 HIGHWAY DISTRICT,TRUE,98.9745324,21.78860589
389,522,ขท.เชียงใหม่ที่ 2,CHIANG MAI 2 HIGHWAY DISTRICT,TRUE,99.03017716,21.76545262
391,527,ขท.เชียงใหม่ที่ 3,CHIANG MAI 3 HIGHWAY DISTRICT,TRUE,98.96076547,21.8537779
286,338,ขท.เพชรบุรี,PHETCHABURI HIGHWAY DISTRICT,TRUE,99.942916,13.1111
397,551,ขท.เพชรบูรณ์ที่ 1,PHETCHABUN 1 HIGHWAY DISTRICT,TRUE,101.15303,16.429306
435,552,ขท.เพชรบูรณ์ที่ 2 (บึงสามพัน),PHETCHABUN 2 (BUENG SAM PHAN) HIGHWAY DISTRICT,TRUE,101.0051036,15.77300504
323,526,ขท.แม่ฮ่องสอน,MAE HONG SON HIGHWAY DISTRICT,TRUE,97.96151565,19.27267625
326,531,ขท.แพร่,PHRAE HIGHWAY DISTRICT,TRUE,100.161882,21.156432
1563,55403,หมวดทางหลวงภูกระดึง,NULL,TRUE,101.942468,16.847951
2026,63805,หมวดทางหลวงภูสิงห์,NULL,TRUE,104.061806,14.420361
1562,55504,หมวดทางหลวงภูเรือ,NULL,TRUE,101.471713,17.441793
2025,63605,หมวดทางหลวงภูเงิน,NULL,TRUE,104.557146,14.718845
1959,32401,หมวดทางหลวงภูเก็ต,NULL,TRUE,98.395962,7.928412
1337,53504,หมวดทางหลวงจุน,NULL,TRUE,100.1130219,19.34699627
1332,31903,หมวดทางหลวงจะนะ,NULL,TRUE,100.663357,7.028417
1855,62603,หมวดทางหลวงจตุรัส,NULL,TRUE,101.8477348,15.56149107
1330,63502,หมวดทางหลวงจตุรพักตรพิมาน,NULL,TRUE,103.5694545,15.85123159
1331,52104,หมวดทางหลวงจอมทอง,NULL,TRUE,98.522778,21.535586
1574,63901,หมวดทางหลวงมุกดาหาร,NULL,TRUE,104.7187669,16.55721417
1571,62804,หมวดทางหลวงมัญจาคีรี,NULL,TRUE,102.598499,16.280786
1917,41504,หมวดทางหลวงมหาชัย,NULL,TRUE,100.2628473,13.54889246
1566,43207,หมวดทางหลวงมวกเหล็ก,NULL,TRUE,101.201585,14.63609268
2021,63103,หมวดทางหลวงม่วงสามสิบ,NULL,TRUE,104.738416,15.500359
1829,55805,หมวดทางหลวงม่วงเจ็ดต้น,NULL,TRUE,101.0383496,21.11171562
1846,62101,หมวดทางหลวงศิลา,NULL,TRUE,102.8930188,16.43314669
1640,61805,หมวดทางหลวงศรีมหาโพธิ์,NULL,TRUE,101.575495,13.907661
1638,44104,หมวดทางหลวงศรีประจันต์,NULL,TRUE,100.1116008,14.67616673
1641,63601,หมวดทางหลวงศรีรัตนะ,NULL,TRUE,104.481589,14.778869
1783,52404,หมวดทางหลวงศรีวิชัย,NULL,TRUE,98.88179684,21.04167156
1642,64303,หมวดทางหลวงศรีวิไล,NULL,TRUE,151.241795,21.185956
1644,44408,หมวดทางหลวงศรีสวัสดิ์,NULL,TRUE,99.13527205,14.42290158
1645,63801,หมวดทางหลวงศรีสะเกษ,NULL,TRUE,104.250333,15.024925
1643,64404,หมวดทางหลวงศรีสงคราม,NULL,TRUE,104.271958,17.622995
1680,51301,หมวดทางหลวงศรีสำโรง,NULL,TRUE,99.8640613,17.16718575
1637,31402,หมวดทางหลวงศรีนครินทร์,NULL,TRUE,99.886857,7.574203
1924,41702,หมวดทางหลวงศรีนครินทร์,NULL,TRUE,100.644899,13.662715
1635,55204,หมวดทางหลวงศรีเทพ,NULL,TRUE,101.072583,15.424002
1681,61504,หมวดทางหลวงศีขรภูมิ,,TRUE,103.8332805,14.94395509
1922,41605,หมวดทางหลวงธัญบุรี,NULL,TRUE,100.705364,14.007924
1873,61406,หมวดทางหลวงธงชัยเหนือ,NULL,TRUE,102.0417957,14.77913895
1421,31204,หมวดทางหลวงธารโต,NULL,TRUE,101.18779,6.15973
1314,63804,หมวดทางหลวงขุขันธ์,NULL,TRUE,104.203513,14.67016
1315,52603,หมวดทางหลวงขุนยวม,NULL,TRUE,97.93178081,21.8058563
1186,42505,หมวดทางหลวงขลุง,NULL,TRUE,102.355056,12.39540191
1801,64101,หมวดทางหลวงดงมะไฟ,NULL,TRUE,103.989775,17.276999
1358,63904,หมวดทางหลวงดงหลวง,NULL,TRUE,104.530844,16.803188
1365,52204,หมวดทางหลวงดอยสะเก็ด,NULL,TRUE,99.18057541,21.89607719
1364,52107,หมวดทางหลวงดอยเต่า,NULL,TRUE,131.2623043,17.95755923
1359,53503,หมวดทางหลวงดอกคำใต้,NULL,TRUE,99.99448378,19.16449063
1362,63902,หมวดทางหลวงดอนตาล,NULL,TRUE,104.922981,16.31076706
1363,32802,หมวดทางหลวงดอนสัก,NULL,TRUE,99.69607,9.317426
1360,44103,หมวดทางหลวงดอนเจดีย์,NULL,TRUE,100.007197,14.62053152
1361,41101,หมวดทางหลวงดอนเมือง,NULL,TRUE,100.5889833,13.89521666
1908,44404,หมวดทางหลวงด่านมะขามเตี้ย,NULL,TRUE,99.46496406,13.88177533
1867,61203,หมวดทางหลวงด่านขุนทด,NULL,TRUE,101.834109,15.414519
1843,55502,หมวดทางหลวงด่านซ้าย,NULL,TRUE,101.1361642,17.28410153
1943,42502,หมวดทางหลวงด่านชุมพล,NULL,TRUE,102.6254741,12.44369565
1368,44106,หมวดทางหลวงด่านช้าง,NULL,TRUE,99.70271326,14.84147814
1328,32704,หมวดทางหลวงคุระบุรี,NULL,TRUE,98.398914,9.198293
1816,51704,หมวดทางหลวงคณฑี,NULL,TRUE,99.66068302,16.34933783
1316,61405,หมวดทางหลวงครบุรี,NULL,TRUE,102.414995,14.41785827
1317,51705,หมวดทางหลวงคลองขลุง,NULL,TRUE,99.68459802,16.26543026
1818,51709,หมวดทางหลวงคลองลานพัฒนา,NULL,TRUE,99.29087211,16.04569463
2005,26101,หมวดทางหลวงคลองหลวง,NULL,TRUE,100.70375,14.008352
1957,32302,หมวดทางหลวงคลองท่อม,NULL,TRUE,99.13936785,7.97271671
2006,26102,หมวดทางหลวงคันนายาว,NULL,TRUE,100.682423,13.790872
1323,31404,หมวดทางหลวงควนขนุน,NULL,TRUE,99.97182853,7.765181619
1970,31804,หมวดทางหลวงควนรู,NULL,TRUE,100.28935,7.146108
1322,31801,หมวดทางหลวงควนโดน,NULL,TRUE,100.088248,6.797827
1326,51304,หมวดทางหลวงคีรีมาศ,NULL,TRUE,99.76214528,16.84479109
1327,32504,หมวดทางหลวงคีรีรัฐนิคม,NULL,TRUE,99.00568,8.953317
1813,51404,หมวดทางหลวงคีรีราษฎร์,NULL,TRUE,99.00586837,16.40778307
2027,64102,หมวดทางหลวงคำหอม,NULL,TRUE,104.018438,17.121682
1325,63302,หมวดทางหลวงคำเขื่อนแก้ว,NULL,TRUE,104.330776,15.641838
1962,31104,หมวดทางหลวงคอหงส์,NULL,TRUE,100.481193,6.980034
1324,43303,หมวดทางหลวงค่ายบางระจัน,NULL,TRUE,100.2979536,14.79113804
1504,61803,หมวดทางหลวงประจันตคาม,NULL,TRUE,101.52189,14.068426
1503,33303,หมวดทางหลวงประจวบคีรีขันธ์,NULL,TRUE,99.797122,11.806694
1502,61706,หมวดทางหลวงประโคนชัย,NULL,TRUE,102.968937,14.606882
1877,61801,หมวดทางหลวงปราจีนบุรี,NULL,TRUE,101.3712137,14.11555961
1507,33302,หมวดทางหลวงปราณบุรี,NULL,TRUE,99.915244,12.391566
1508,61502,หมวดทางหลวงปราสาท,NULL,TRUE,151.2098006,14.63027705
1509,42604,หมวดทางหลวงปลวกแดง,NULL,TRUE,101.272144,12.988166
1804,64405,หมวดทางหลวงปลาปาก,NULL,TRUE,104.612955,17.115498
1221,53901,หมวดทางหลวงปัว,NULL,TRUE,100.9478445,19.13749585
1512,33204,หมวดทางหลวงปะทิว,NULL,TRUE,99.287795,10.926373
1513,31304,หมวดทางหลวงปะนาเระ,NULL,TRUE,101.48574,6.83897
1796,53505,หมวดทางหลวงปง,NULL,TRUE,100.2719565,19.1938851
1529,52605,หมวดทางหลวงปาย,NULL,TRUE,98.43117915,19.37055384
1526,52606,หมวดทางหลวงปางมะผ้า,NULL,TRUE,97.95703401,17.92784359
1845,55505,หมวดทางหลวงปากภู,NULL,TRUE,101.724817,17.557469
1817,51707,หมวดทางหลวงปากคลองลาน,NULL,TRUE,99.37688996,16.06683781
1949,33703,หมวดทางหลวงปากท่อ,NULL,TRUE,99.79918,13.455349
1519,55404,หมวดทางหลวงปากชม,NULL,TRUE,101.865136,21.028476
1836,55107,หมวดทางหลวงปากช่อง,NULL,TRUE,101.433433,16.735966
1520,61205,หมวดทางหลวงปากช่องที่ 1,NULL,TRUE,101.521421,14.77431
1868,61206,หมวดทางหลวงปากช่องที่2,NULL,TRUE,101.4111212,14.63571306
1525,41403,หมวดทางหลวงปากพลี,NULL,TRUE,101.050969,14.278846
1905,44401,หมวดทางหลวงปากแพรก,NULL,TRUE,99.56921706,14.00491924
1501,41603,หมวดทางหลวงปทุมธานี,NULL,TRUE,100.618141,14.125511
1967,31405,หมวดทางหลวงป่าบอน,NULL,TRUE,100.155229,7.284913
1518,44802,หมวดทางหลวงป่าโมก,NULL,TRUE,100.4517894,14.48667813
1517,53702,หมวดทางหลวงป่าแดด,NULL,TRUE,99.96098906,19.56495227
1969,31206,หมวดทางหลวงยะรม,NULL,TRUE,101.161528,5.787309
1576,31302,หมวดทางหลวงยะรัง,NULL,TRUE,101.29423,6.75803
1577,31201,หมวดทางหลวงยะลา,NULL,TRUE,101.1977712,6.52715855
1579,31203,หมวดทางหลวงยะหา,NULL,TRUE,101.052603,6.484904
1773,31701,หมวดทางหลวงยี่งอ,NULL,TRUE,101.650903,6.52245
1580,64705,หมวดทางหลวงยางตลาด,NULL,TRUE,151.215513,16.411434
1581,32202,หมวดทางหลวงย่านตาขาว,NULL,TRUE,99.640538,7.411205
1575,63301,หมวดทางหลวงยโสธร,NULL,TRUE,104.1380671,15.80204989
1594,32206,หมวดทางหลวงรัษฎา,NULL,TRUE,99.63787,7.99679
1921,41602,หมวดทางหลวงรังสิต,NULL,TRUE,100.5968069,13.87412643
1591,64605,หมวดทางหลวงรัตนวาปี,NULL,TRUE,103.222197,21.270835
1833,55104,หมวดทางหลวงระวิง,NULL,TRUE,101.15639,16.14066
2041,33101,หมวดทางหลวงระนอง,NULL,TRUE,131.256599,10.028292
1586,31702,หมวดทางหลวงระแงะ,NULL,TRUE,101.74788,6.31806
1598,31704,หมวดทางหลวงรือเสาะ,NULL,TRUE,101.52402,6.40075
1596,31202,หมวดทางหลวงรามัน,NULL,TRUE,101.39132,6.46914
1912,41104,หมวดทางหลวงรามอินทรา,NULL,TRUE,100.64715,13.769116
1597,63803,หมวดทางหลวงราษีไศล,NULL,TRUE,104.125922,15.367003
1595,33504,หมวดทางหลวงราชบุรี,NULL,TRUE,99.791452,13.52509
1960,32402,หมวดทางหลวงราไวย์,NULL,TRUE,98.334769,7.799141
1913,41105,หมวดทางหลวงร่มเกล้า,NULL,TRUE,100.7458833,13.75705
1583,64706,หมวดทางหลวงร่องคำ,NULL,TRUE,151.24327,16.266618
1584,32602,หมวดทางหลวงร่อนพิบูลย์,NULL,TRUE,99.856044,8.180345
1585,63501,หมวดทางหลวงร้อยเอ็ด,NULL,TRUE,103.6593527,16.05372442
1582,53103,หมวดทางหลวงร้องกวาง,NULL,TRUE,100.3122157,21.33087494
1604,55701,หมวดทางหลวงลับแล,NULL,TRUE,100.0423598,17.61151772
1857,62608,หมวดทางหลวงละหาน,NULL,TRUE,101.9595435,15.67134733
1784,52405,หมวดทางหลวงลี้,NULL,TRUE,99.00114857,17.76220657
1618,63402,หมวดทางหลวงลืออำนาจ,NULL,TRUE,,
1605,41604,หมวดทางหลวงลาดหลุมแก้ว,NULL,TRUE,100.564839,13.972505
1906,44402,หมวดทางหลวงลาดหญ้า,NULL,TRUE,99.41861495,14.10115161
2007,26103,หมวดทางหลวงลาดกระบัง,NULL,TRUE,100.820327,13.708617
1606,51103,หมวดทางหลวงลานกระบือ,NULL,TRUE,99.98892873,16.50010596
1608,44704,หมวดทางหลวงลานสัก,NULL,TRUE,99.53447568,15.4679514
1607,32101,หมวดทางหลวงลานสกา,NULL,TRUE,99.840487,8.406819
1610,61704,หมวดทางหลวงลำปลายมาศ,NULL,TRUE,,
2012,41107,หมวดทางหลวงลำลูกกา,NULL,TRUE,100.596799,13.875664
1887,43501,หมวดทางหลวงลำนารายณ์,NULL,TRUE,101.13169,15.20904
1897,43802,หมวดทางหลวงลำพยนต์,NULL,TRUE,100.5826142,15.31091913
1890,43504,หมวดทางหลวงลำพญาไม้,NULL,TRUE,101.2716041,15.09259622
2043,52402,หมวดทางหลวงลำพูน,NULL,TRUE,98.96773096,21.44623825
1603,53104,หมวดทางหลวงลอง,NULL,TRUE,99.85733152,21.09794246
1884,43101,หมวดทางหลวงลพบุรี,NULL,TRUE,100.656145,14.79874582
1900,43204,หมวดทางหลวงหินกอง,NULL,TRUE,100.8910969,14.40515361
1872,61401,หมวดทางหลวงหลุมเงิน,NULL,TRUE,101.9937056,14.5849588
1757,33205,หมวดทางหลวงหลังสวน,NULL,TRUE,99.062057,9.940616
2036,41102,หมวดทางหลวงหลักสี่,NULL,TRUE,100.5826,13.88485
1832,55103,หมวดทางหลวงหล่มสัก,NULL,TRUE,101.214804,16.74621
1834,55105,หมวดทางหลวงหล่มเก่า,NULL,TRUE,101.23155,16.886315
1670,33301,หมวดทางหลวงหัวหิน,NULL,TRUE,99.966851,12.455289
1954,32106,หมวดทางหลวงหัวไทร,NULL,TRUE,100.321215,8.006465
1961,31103,หมวดทางหลวงหาดใหญ่,NULL,TRUE,100.465767,7.007212
2051,31301,หมวดทางหลวงหนองจิก,NULL,TRUE,101.22406,6.848
1674,43106,หมวดทางหลวงหนองม่วง,NULL,TRUE,100.6157606,15.30199729
1992,64601,หมวดทางหลวงหนองคาย,NULL,TRUE,102.764181,17.787345
1859,62205,หมวดทางหลวงหนองปลิง,NULL,TRUE,103.3053504,16.04635472
1891,43506,หมวดทางหลวงหนองย่างเสือ,NULL,TRUE,101.13169,15.20904
1751,55401,หมวดทางหลวงหนองหิน,NULL,TRUE,101.85931,17.122176
1854,62401,หมวดทางหลวงหนองหาน,NULL,TRUE,102.978812,17.363474
1941,42307,หมวดทางหลวงหนองตาคง,NULL,TRUE,102.382472,13.040354
1741,44702,หมวดทางหลวงหนองฉาง,NULL,TRUE,99.84750849,15.38345699
1738,61708,หมวดทางหลวงหนองกี่,NULL,TRUE,102.543167,14.683307
1882,61904,หมวดทางหลวงหนองสังข์,NULL,TRUE,102.512781,13.687002
1749,63903,หมวดทางหลวงหนองสูง,NULL,TRUE,104.349145,16.498869
1991,62803,หมวดทางหลวงหนองสองห้อง,NULL,TRUE,102.793007,15.733169
1746,61403,หมวดทางหลวงหนองบุญมาก,NULL,TRUE,102.336611,14.750977
1743,43806,หมวดทางหลวงหนองบัว,NULL,TRUE,100.6019283,15.86512787
1907,44403,หมวดทางหลวงหนองบัว,NULL,TRUE,99.39068522,14.06915131
1745,62901,หมวดทางหลวงหนองบัวลำภู,NULL,TRUE,102.447126,17.207863
1864,61101,หมวดทางหลวงหนองบัวโคก,NULL,TRUE,101.83412,15.41401
1744,62605,หมวดทางหลวงหนองบัวแดง,NULL,TRUE,101.785704,16.062213
1977,51201,หมวดทางหลวงหนองบัวใต้,NULL,TRUE,99.151179,16.79833087
1742,62903,หมวดทางหลวงหนองนาคำ,NULL,TRUE,102.332476,16.814677
1880,61902,หมวดทางหลวงหนองน้ำใส,NULL,TRUE,102.431242,13.868099
1747,63304,หมวดทางหลวงหนองพอก,NULL,TRUE,104.086311,16.276322
1932,42201,หมวดทางหลวงหนองไม้แดงที่1,NULL,TRUE,100.9888131,13.40438947
1933,42202,หมวดทางหลวงหนองไม้แดงที่2,NULL,TRUE,100.98884,13.40441918
1861,63102,หมวดทางหลวงหนองไฮ,NULL,TRUE,104.748217,15.311345
1838,55203,หมวดทางหลวงหนองไผ่,NULL,TRUE,101.057068,16.082773
1849,62701,หมวดทางหลวงหนองไผ่,NULL,TRUE,102.110477,16.584415
1732,62703,หมวดทางหลวงหนองเรือ,NULL,TRUE,102.430838,16.492213
1974,41404,หมวดทางหลวงหนองเสือ,NULL,TRUE,101.0367724,14.1824785
1899,43203,หมวดทางหลวงหนองแค,NULL,TRUE,100.9267406,14.40006125
1736,42205,หมวดทางหลวงหนองใหญ่,NULL,TRUE,101.3462948,13.13827334
1953,32105,หมวดทางหลวงหน้าสตน,NULL,TRUE,100.321679,8.006595
1760,32205,หมวดทางหลวงห้วยยอด,NULL,TRUE,99.632348,7.78998
1798,53302,หมวดทางหลวงห้วยสัก,NULL,TRUE,99.8869563,19.81963762
1759,64106,หมวดทางหลวงห้วยผึ้ง,NULL,TRUE,103.912621,16.657987
1950,33704,หมวดทางหลวงห้วยชินสีห์,NULL,TRUE,99.79918,13.455349
2048,32304,หมวดทางหลวงห้วยน้ำขาว,NULL,TRUE,99.157354,7.88466
1862,63105,หมวดทางหลวงห้วยพับ,NULL,TRUE,104.748217,15.311345
1758,64704,หมวดทางหลวงห้วยเม็ก,NULL,TRUE,103.1862,16.656371
1779,52302,หมวดทางหลวงห้างฉัตร,NULL,TRUE,99.29940481,21.32173825
1634,55202,หมวดทางหลวงวิเชียรบุรี,NULL,TRUE,101.042439,15.646279
1879,61901,หมวดทางหลวงวัฒนานคร,NULL,TRUE,102.323001,13.743915
1622,42606,หมวดทางหลวงวังจันทร์,NULL,TRUE,101.5184004,12.94434651
1809,51203,หมวดทางหลวงวังประจบ,NULL,TRUE,99.31920498,16.91575556
1627,32207,หมวดทางหลวงวังวิเศษ,NULL,TRUE,99.535798,7.766667
1942,42501,หมวดทางหลวงวังกระแจะ,NULL,TRUE,102.4752879,12.30099854
1821,51501,หมวดทางหลวงวังทอง,NULL,TRUE,100.4022783,16.83341606
1628,55402,หมวดทางหลวงวังสะพุง,NULL,TRUE,101.779109,17.300608
1839,55205,หมวดทางหลวงวังชมภู,NULL,TRUE,101.0435651,16.26426236
1623,53106,หมวดทางหลวงวังชิ้น,NULL,TRUE,99.4710109,17.78890529
1626,41305,หมวดทางหลวงวังน้อย,NULL,TRUE,100.740509,14.266158
1620,52805,หมวดทางหลวงวังเหนือ,NULL,TRUE,99.6164,19.10495
1964,31902,หมวดทางหลวงวังใหญ่,NULL,TRUE,100.85397,6.71642
1632,62204,หมวดทางหลวงวาปีปทุม,NULL,TRUE,103.372272,15.843748
1633,63205,หมวดทางหลวงวารินชำราบ,NULL,TRUE,104.900805,15.110914
1631,64203,หมวดทางหลวงวานรนิวาส,NULL,TRUE,151.2541007,17.65054127
1619,51903,หมวดทางหลวงวชิรบารมี,NULL,TRUE,100.1422719,16.52630266
1860,63101,หมวดทางหลวงวนารมย์,NULL,TRUE,104.8393387,15.27266774
1329,52804,หมวดทางหลวงงาว,NULL,TRUE,99.94358623,21.88694404
1375,32201,หมวดทางหลวงตรัง,NULL,TRUE,99.63151376,7.511551024
1374,63406,หมวดทางหลวงตระการพืชผล,NULL,TRUE,105.080929,15.695498
1373,55702,หมวดทางหลวงตรอน,NULL,TRUE,100.1049112,17.51740191
1378,41901,หมวดทางหลวงตลิ่งชัน,NULL,TRUE,100.469968,13.788433
1380,32703,หมวดทางหลวงตะกั่วป่า,NULL,TRUE,98.342734,8.868305
1381,51902,หมวดทางหลวงตะพานหิน,NULL,TRUE,100.4502102,16.21146114
1966,31403,หมวดทางหลวงตะโหมด,NULL,TRUE,100.127662,7.356197
1837,55108,หมวดทางหลวงตาดกลอย,NULL,TRUE,101.354258,17.002923
1898,43803,หมวดทางหลวงตาคลี,NULL,TRUE,100.3457175,15.26379093
1382,31706,หมวดทางหลวงตากใบ,NULL,TRUE,102.08856,6.23785
1389,61907,หมวดทางหลวงตาพระยา,NULL,TRUE,102.823032,14.036231
1308,63403,หมวดทางหลวงกุดข้าวปุ้น,NULL,TRUE,,
1310,62207,หมวดทางหลวงกุดรัง,NULL,TRUE,102.872708,16.045169
1309,64204,หมวดทางหลวงกุดบาก,NULL,TRUE,103.8178412,17.0847105
1311,64104,หมวดทางหลวงกุสุมาลย์,NULL,TRUE,104.210427,17.344247
1294,33102,หมวดทางหลวงกระบุรี,NULL,TRUE,98.71449599,10.17643374
1293,32301,หมวดทางหลวงกระบี่,NULL,TRUE,98.96528909,8.10405804
1292,62104,หมวดทางหลวงกระนวน,NULL,TRUE,103.081943,16.718251
1989,61207,หมวดทางหลวงกลางดง,NULL,TRUE,101.286629,14.643419
1296,63603,หมวดทางหลวงกันทรลักษ์,NULL,TRUE,104.64731,14.635268
2040,33103,หมวดทางหลวงกะเปอร์,NULL,TRUE,98.587387,9.5825507
1302,64701,หมวดทางหลวงกาฬสินธุ์,NULL,TRUE,103.5118742,16.4318732
1530,52704,หมวดทางหลวงฝาง,NULL,TRUE,99.180008,19.863683
1297,32804,หมวดทางหลวงกาญจนดิษฐ์,NULL,TRUE,99.67430816,9.137335509
1301,61503,หมวดทางหลวงกาบเชิง,NULL,TRUE,151.254912,14.590984
1963,31106,หมวดทางหลวงกำแพงเพชร,NULL,TRUE,100.251724,7.081847
1307,33602,หมวดทางหลวงกำแพงแสน,NULL,TRUE,,
1290,61806,หมวดทางหลวงกบินทร์บุรี,NULL,TRUE,101.763561,13.995128
1768,52106,หมวดทางหลวงอมก๋อย,NULL,TRUE,101.0367724,14.1824785
1203,43302,หมวดทางหลวงอินทร์บุรี,NULL,TRUE,100.3278296,15.00193126
1207,55801,หมวดทางหลวงอุตรดิตถ์,NULL,TRUE,100.1624436,17.67168544
1209,63802,หมวดทางหลวงอุทุมพรพิสัย,NULL,TRUE,104.1589056,15.17391656
1208,44701,หมวดทางหลวงอุทัยธานี,NULL,TRUE,100.0220586,15.44673096
1415,44507,หมวดทางหลวงทุ่งคอก,NULL,TRUE,99.93513271,14.18152272
1418,52406,หมวดทางหลวงทุ่งหัวช้าง,NULL,TRUE,99.02605361,21.01703105
1417,31803,หมวดทางหลวงทุ่งหว้า,NULL,TRUE,99.77238,7.07943
1416,32606,หมวดทางหลวงทุ่งสง,NULL,TRUE,99.532752,8.280911
1413,51306,หมวดทางหลวงทุ่งเสลี่ยม,NULL,TRUE,99.63922681,17.32059638
1414,32604,หมวดทางหลวงทุ่งใหญ่,NULL,TRUE,99.361541,8.250312
1212,51406,หมวดทางหลวงอุ้มผาง,NULL,TRUE,98.8609849,16.02348422
1881,61903,หมวดทางหลวงอรัญประเทศ,NULL,TRUE,98.4046381,17.88107694
1958,32305,หมวดทางหลวงทรายขาว,NULL,TRUE,99.25200953,7.75414807
1390,32403,หมวดทางหลวงถลาง,NULL,TRUE,98.299063,8.197574
2032,42602,หมวดทางหลวงทับมา,NULL,TRUE,101.210406,12.732217
1395,32702,หมวดทางหลวงทับปุด,NULL,TRUE,131.2407333,8.513545234
1396,33304,หมวดทางหลวงทับสะแก,NULL,TRUE,99.53697718,11.42792881
1883,61905,หมวดทางหลวงทับพริก,NULL,TRUE,102.5721109,13.81329171
1940,42305,หมวดทางหลวงทับไทร,NULL,TRUE,102.270468,12.896956
1973,41401,หมวดทางหลวงองครักษ์,NULL,TRUE,100.8910969,14.40515361
1902,44501,หมวดทางหลวงอู่ทอง,NULL,TRUE,,
1200,63305,หมวดทางหลวงอาจสามารถ,NULL,TRUE,100.510863,14.51863911
1198,64205,หมวดทางหลวงอากาศอำนวย,NULL,TRUE,102.323175,13.487619
1202,63401,หมวดทางหลวงอำนาจเจริญ,NULL,TRUE,104.6257001,15.89102171
1392,44409,หมวดทางหลวงทองผาภูมิ,NULL,TRUE,131.2369426,14.73895363
1391,55703,หมวดทางหลวงทองแสนขัน,NULL,TRUE,100.3382433,17.46977068
1407,44405,หมวดทางหลวงท่ามะกา,NULL,TRUE,99.7322829,13.96477354
1909,44407,หมวดทางหลวงท่าม่วง,NULL,TRUE,99.521307,13.77246647
1410,32102,หมวดทางหลวงท่าศาลา,NULL,TRUE,99.951886,8.623979
1775,52102,หมวดทางหลวงท่าข้าม,NULL,TRUE,98.59815847,21.19735257
1405,55802,หมวดทางหลวงท่าปลา,NULL,TRUE,100.348011,17.71238072
1951,33802,หมวดทางหลวงท่ายาง,NULL,TRUE,99.942916,13.1111
1889,43503,หมวดทางหลวงท่าหลวง,NULL,TRUE,101.0973279,15.07079649
2037,32307,หมวดทางหลวงอ่าวนาง,NULL,TRUE,98.83918062,8.073455706
1199,44804,หมวดทางหลวงอ่างทอง,NULL,TRUE,103.977905,17.609483
1402,43805,หมวดทางหลวงท่าตะโก,NULL,TRUE,100.3076837,15.63413622
1404,61506,หมวดทางหลวงท่าตูม,NULL,TRUE,103.6730117,15.31775055
1403,33603,หมวดทางหลวงท่าตำหนัก,NULL,TRUE,100.178645,13.775445
1400,32503,หมวดทางหลวงท่าฉาง,NULL,TRUE,99.148575,9.320917
1412,64402,หมวดทางหลวงท่าอุเทน,NULL,TRUE,104.661864,17.531774
1411,51405,หมวดทางหลวงท่าสองยาง,NULL,TRUE,98.05786775,17.43973677
1401,32505,หมวดทางหลวงท่าชนะ,NULL,TRUE,99.199167,9.507284
1397,33203,หมวดทางหลวงท่าแซะ,NULL,TRUE,99.201337,10.757768
1398,31802,หมวดทางหลวงท่าแพ,NULL,TRUE,99.918078,6.841866
1399,42303,หมวดทางหลวงท่าใหม่,NULL,TRUE,101.962298,12.722139
1408,32404,หมวดทางหลวงท้ายเหมือง,NULL,TRUE,98.25637816,8.43066165
1774,51205,หมวดทางหลวงท้องฟ้า,NULL,TRUE,98.94142483,17.05986452
1925,41703,หมวดทางหลวงสมุทรปราการ,NULL,TRUE,100.643134,13.663544
1689,33701,หมวดทางหลวงสมุทรสงคราม,NULL,TRUE,99.988122,13.382992
1687,64702,หมวดทางหลวงสมเด็จ,NULL,TRUE,151.22102,16.657201
1718,31102,หมวดทางหลวงสิงหนคร,NULL,TRUE,100.548559,7.239886
1719,43304,หมวดทางหลวงสิงห์บุรี,NULL,TRUE,100.4040745,14.87896866
1720,32107,หมวดทางหลวงสิชล,NULL,TRUE,99.895322,8.969747
2039,42103,หมวดทางหลวงสิบเอ็ดศอก,NULL,TRUE,101.120199,13.593497
1717,32204,หมวดทางหลวงสิเกา,NULL,TRUE,99.397824,7.552197
1896,43801,หมวดทางหลวงสุขสำราญ,NULL,TRUE,100.5160858,15.3569221
1724,31705,หมวดทางหลวงสุคิริน,NULL,TRUE,101.77856,5.94375
1728,61501,หมวดทางหลวงสุรินทร์,NULL,TRUE,151.229043,14.757895
1727,32501,หมวดทางหลวงสุราษฎร์ธานี,NULL,TRUE,99.312026,9.12589
1730,63303,หมวดทางหลวงสุวรรณภูมิ,NULL,TRUE,151.295412,15.610444
1729,62904,หมวดทางหลวงสุวรรณคูหา,NULL,TRUE,102.33321,17.480632
1725,41103,หมวดทางหลวงสุทธิสาร,NULL,TRUE,100.5613833,13.78951666
1726,44101,หมวดทางหลวงสุพรรณบุรี,NULL,TRUE,100.0643187,14.48429374
1823,51302,หมวดทางหลวงสุโขทัย,NULL,TRUE,99.85778,17.01838
1723,31703,หมวดทางหลวงสุไหงโก-ลก,NULL,TRUE,101.938061,6.020185
1692,44602,หมวดทางหลวงสรรคบุรี,NULL,TRUE,100.1443208,15.04282823
1693,44603,หมวดทางหลวงสรรพยา,NULL,TRUE,100.2549764,15.1479637
1903,44502,หมวดทางหลวงสระยายโสม,NULL,TRUE,99.89593766,14.28445689
1694,43202,หมวดทางหลวงสระบุรี,NULL,TRUE,100.956897,14.54444659
2028,64105,หมวดทางหลวงสร้างค้อ,NULL,TRUE,103.9334532,16.8576229
1706,44410,หมวดทางหลวงสังขละบุรี,NULL,TRUE,131.2377616,14.97375485
1707,61505,หมวดทางหลวงสังขะ,NULL,TRUE,103.8048085,14.68016517
1807,64603,หมวดทางหลวงสังคม,NULL,TRUE,102.360852,21.032186
1709,42804,หมวดทางหลวงสัตหีบ,NULL,TRUE,100.907255,12.671681
1713,52101,หมวดทางหลวงสันป่าตอง,NULL,TRUE,98.88305882,21.58055569
1711,53604,หมวดทางหลวงสันติสุข,NULL,TRUE,100.9333057,21.98544691
1710,52203,หมวดทางหลวงสันกำแพง,NULL,TRUE,99.09046128,21.75956827
1712,52205,หมวดทางหลวงสันทราย,NULL,TRUE,98.96159027,19.06803356
2059,52202,หมวดทางหลวงสันทราย,NULL,TRUE,98.96798824,21.8559719
1696,51305,หมวดทางหลวงสวรรคโลก,NULL,TRUE,99.83172963,17.3066093
1699,33202,หมวดทางหลวงสวี,NULL,TRUE,99.094536,10.330483
1698,44703,หมวดทางหลวงสว่างอารมณ์,NULL,TRUE,99.86098855,15.57577007
1697,64201,หมวดทางหลวงสว่างแดนดิน,NULL,TRUE,151.265368,17.474533
1914,41106,หมวดทางหลวงสะพานสูง,NULL,TRUE,100.685233,13.9514
1705,52207,หมวดทางหลวงสะเมิง,NULL,TRUE,98.57200343,21.84231643
1704,31901,หมวดทางหลวงสะเดา,NULL,TRUE,100.42294,6.63506
1875,61702,หมวดทางหลวงสะแกโพรง,NULL,TRUE,103.093478,14.95613088
1722,61106,หมวดทางหลวงสีดา,NULL,TRUE,102.5247372,15.55006518
1721,61204,หมวดทางหลวงสีคิ้ว,NULL,TRUE,101.6986366,15.0351434
1684,31101,หมวดทางหลวงสงขลา,NULL,TRUE,100.562517,7.148981
1731,61202,หมวดทางหลวงสูงเนิน,NULL,TRUE,101.855413,14.880246
1714,31305,หมวดทางหลวงสายบุรี,NULL,TRUE,101.53184,6.70329
1715,52206,หมวดทางหลวงสารภี,NULL,TRUE,99.04485103,21.69497169
1685,31107,หมวดทางหลวงสทิงพระ,NULL,TRUE,100.42641,7.515418
1703,42308,หมวดทางหลวงสอยดาว,NULL,TRUE,102.176389,13.218358
1700,53105,หมวดทางหลวงสอง,NULL,TRUE,100.1820883,21.46089333
1702,44505,หมวดทางหลวงสองพี่น้อง,NULL,TRUE,100.1028247,14.16293915
1701,53903,หมวดทางหลวงสองแคว,NULL,TRUE,100.7024856,19.36092522
1686,52303,หมวดทางหลวงสบปราบ,NULL,TRUE,99.33421024,17.8640841
1795,53906,หมวดทางหลวงผาช้างน้อย,NULL,TRUE,100.4526798,19.32502066
1780,52306,หมวดทางหลวงชมพู,NULL,TRUE,99.49158,21.23957
1355,33201,หมวดทางหลวงชุมพร,NULL,TRUE,99.117568,10.550682
1356,61508,หมวดทางหลวงชุมพลบุรี,NULL,TRUE,103.387563,15.349909
1357,61107,หมวดทางหลวงชุมพวง,NULL,TRUE,102.7174357,15.30803961
1496,63203,หมวดทางหลวงบุณฑริก,NULL,TRUE,105.3968166,14.76329997
1874,61701,หมวดทางหลวงบุรีรัมย์,NULL,TRUE,103.007368,14.914542
1443,62203,หมวดทางหลวงบรบือ,NULL,TRUE,103.1169481,16.04154038
1350,62601,หมวดทางหลวงชัยภูมิ,NULL,TRUE,102.140803,15.814507
1345,44601,หมวดทางหลวงชัยนาท,NULL,TRUE,100.092138,15.26125872
1851,62301,หมวดทางหลวงชัยพร,NULL,TRUE,102.849462,17.314681
1888,43502,หมวดทางหลวงบัวชุม,NULL,TRUE,101.1902198,15.26347666
1451,61507,หมวดทางหลวงบัวเชด,NULL,TRUE,103.867961,14.58315
1343,32605,หมวดทางหลวงชะอวด,NULL,TRUE,99.965339,8.046579
1344,33803,หมวดทางหลวงชะอำ,NULL,TRUE,99.93648318,12.82725741
1493,64302,หมวดทางหลวงบึงกาฬ,NULL,TRUE,103.874538,21.280991
1495,55201,หมวดทางหลวงบึงสามพัน,NULL,TRUE,101.008734,15.770054
1494,51906,หมวดทางหลวงบึงนาราง,NULL,TRUE,100.1248573,16.07591026
1929,41904,หมวดทางหลวงบางขุนเทียน,NULL,TRUE,100.434823,13.658743
1459,42102,หมวดทางหลวงบางคล้า,NULL,TRUE,101.2200227,13.67349279
1464,44102,หมวดทางหลวงบางปลาม้า,NULL,TRUE,100.1730069,14.39136681
1466,44801,หมวดทางหลวงบางปะหัน,NULL,TRUE,100.5108249,14.51868895
1937,42104,หมวดทางหลวงบางปะกง,NULL,TRUE,100.983582,13.600609
1467,41303,หมวดทางหลวงบางปะอิน,NULL,TRUE,100.608459,14.207492
1926,41705,หมวดทางหลวงบางปู,NULL,TRUE,100.684435,13.515026
1469,51104,หมวดทางหลวงบางระกำ,NULL,TRUE,99.93968141,16.65830954
1935,42802,หมวดทางหลวงบางละมุง,NULL,TRUE,100.9304157,13.00267678
1894,43704,หมวดทางหลวงบางตาหงาย,NULL,TRUE,99.99047141,15.93803358
1455,51505,หมวดทางหลวงบางกระทุ่ม,NULL,TRUE,100.448893,16.60939884
1939,42302,หมวดทางหลวงบางกะจะ,NULL,TRUE,102.064297,12.576324
2014,41405,หมวดทางหลวงบางอ้อ,NULL,TRUE,101.038132,14.18265
1472,33305,หมวดทางหลวงบางสะพาน,NULL,TRUE,99.43626522,11.24144248
1463,41804,หมวดทางหลวงบางบัวทอง,NULL,TRUE,100.4094884,13.87185291
1923,41701,หมวดทางหลวงบางนา,NULL,TRUE,100.644486,13.670083
1468,41706,หมวดทางหลวงบางพลี,NULL,TRUE,100.735359,13.623296
2015,41505,หมวดทางหลวงบางโทรัด,NULL,TRUE,100.263007,13.549921
2031,33604,หมวดทางหลวงบางเลน,NULL,TRUE,100.17789,14.01643
1927,41902,หมวดทางหลวงบางแค,NULL,TRUE,100.4055398,13.70964611
1934,42801,หมวดทางหลวงบางแสน,NULL,TRUE,100.91315,13.29039
1453,33702,หมวดทางหลวงบางแพ,NULL,TRUE,99.92431,13.693908
1454,41802,หมวดทางหลวงบางใหญ่,NULL,TRUE,100.4094889,13.87193518
1352,51504,หมวดทางหลวงชาติตระการ,NULL,TRUE,100.6485845,17.24561951
1339,62806,หมวดทางหลวงชนบท,NULL,TRUE,102.6041932,16.05305115
1840,55206,หมวดทางหลวงชนแดน,NULL,TRUE,100.7291696,16.11817353
1812,51402,หมวดทางหลวงช่องแคบ,NULL,TRUE,98.7018605,16.51005633
1815,51703,หมวดทางหลวงบ่อทอง,NULL,TRUE,99.71961819,16.48721815
1776,52103,หมวดทางหลวงบ่อสลี,NULL,TRUE,98.24945181,21.15138129
1904,44504,หมวดทางหลวงบ่อพลอย,NULL,TRUE,99.50767607,14.41837884
1446,53905,หมวดทางหลวงบ่อเกลือ,NULL,TRUE,101.1516076,19.080273
1351,32603,หมวดทางหลวงช้างกลาง,NULL,TRUE,99.556965,8.374419
1944,42503,หมวดทางหลวงช้างทูน,NULL,TRUE,102.4621354,12.59427055
1491,64301,หมวดทางหลวงบ้านม่วง,NULL,TRUE,103.564949,17.851026
1484,62402,หมวดทางหลวงบ้านดุง,NULL,TRUE,103.252191,17.608304
1483,61703,หมวดทางหลวงบ้านด่าน,NULL,TRUE,103.184545,15.154079
1811,51206,หมวดทางหลวงบ้านด่านลานหอย,NULL,TRUE,99.58450849,17.01232026
1948,33505,หมวดทางหลวงบ้านคา,NULL,TRUE,99.40818,13.432305
2019,51506,หมวดทางหลวงบ้านป่า,NULL,TRUE,100.353791,16.929216
1482,42603,หมวดทางหลวงบ้านฉาง,NULL,TRUE,101.0548789,12.72381391
1481,61709,หมวดทางหลวงบ้านกรวด,NULL,TRUE,103.092129,14.387022
1492,61804,หมวดทางหลวงบ้านสร้าง,NULL,TRUE,101.217093,14.003673
1956,32902,หมวดทางหลวงบ้านส้อง,NULL,TRUE,99.402757,8.62068
1490,62305,หมวดทางหลวงบ้านผือ,NULL,TRUE,102.393618,17.557837
1489,42203,หมวดทางหลวงบ้านบึง,NULL,TRUE,101.1424414,13.25183101
1487,41402,หมวดทางหลวงบ้านนา,NULL,TRUE,101.050551,14.279283
1488,32801,หมวดทางหลวงบ้านนาสาร,NULL,TRUE,99.397182,8.944535
1828,55804,หมวดทางหลวงบ้านโคก,NULL,TRUE,101.073338,21.02652659
1476,33501,หมวดทางหลวงบ้านโป่ง,NULL,TRUE,99.937474,13.793594
1478,52403,หมวดทางหลวงบ้านโฮ่ง,NULL,TRUE,98.81624895,21.38242443
1477,42101,หมวดทางหลวงบ้านโพธิ์,NULL,TRUE,101.036711,13.631786
1480,44705,หมวดทางหลวงบ้านไร่,NULL,TRUE,99.54037886,15.08429104
1479,62802,หมวดทางหลวงบ้านไผ่,NULL,TRUE,102.713466,16.038902
1787,52802,หมวดทางหลวงบ้านเอื้อม,NULL,TRUE,99.47694156,21.30312938
1986,52801,หมวดทางหลวงบ้านเสด็จ,NULL,TRUE,99.59960834,21.37745586
1895,43705,หมวดทางหลวงบ้านแดน,NULL,TRUE,99.88583865,15.91161354
1473,62805,หมวดทางหลวงบ้านแฮด,NULL,TRUE,102.76051,16.206678
1824,51307,หมวดทางหลวงบ้านแก่ง,NULL,TRUE,99.68266628,17.4589788
1853,62304,หมวดทางหลวงนิคมสงเคราะห์,NULL,TRUE,102.6796438,17.34915812
1427,32103,หมวดทางหลวงนครศรีธรรมราช,NULL,TRUE,99.946715,8.43411
2029,33601,หมวดทางหลวงนครปฐม,NULL,TRUE,100.041122,13.805878
1865,61102,หมวดทางหลวงนครราชสีมาที่1,NULL,TRUE,102.1541942,15.04975196
1866,61201,หมวดทางหลวงนครราชสีมาที่2,NULL,TRUE,102.0566525,14.82691735
1918,41302,หมวดทางหลวงนครหลวง,NULL,TRUE,100.587945,14.352538
2056,43701,หมวดทางหลวงนครสวรรค์ที่ 1,NULL,TRUE,100.121826,15.614445
2057,43702,หมวดทางหลวงนครสวรรค์ที่ 2,NULL,TRUE,100.10514,15.768701
1814,51701,หมวดทางหลวงนครชุม,NULL,TRUE,99.49486888,16.47977411
1423,41503,หมวดทางหลวงนครชัยศรี,NULL,TRUE,100.189795,13.765344
1425,64401,หมวดทางหลวงนครพนม,NULL,TRUE,104.720183,17.383927
1422,51503,หมวดทางหลวงนครไทย,NULL,TRUE,100.8105994,17.06564211
2010,31707,หมวดทางหลวงนราธิวาส,NULL,TRUE,101.815522,6.418622
1920,41601,หมวดทางหลวงนวนคร,NULL,TRUE,100.613421,14.12611364
1876,61705,หมวดทางหลวงนางรอง,NULL,TRUE,102.854677,14.656247
1830,55101,หมวดทางหลวงนางั่ว,NULL,TRUE,101.157648,16.529169
2023,63407,หมวดทางหลวงนาตาล,NULL,TRUE,105.337846,15.927255
1438,32601,หมวดทางหลวงนาบอน,NULL,TRUE,99.53334693,8.280448506
1437,53606,หมวดทางหลวงนาน้อย,NULL,TRUE,100.7875919,21.33525737
1433,32203,หมวดทางหลวงนาโยง,NULL,TRUE,99.397193,8.944503
1432,64406,หมวดทางหลวงนาแก,NULL,TRUE,104.59729,16.92558
1431,32104,หมวดทางหลวงนบพิตำ,NULL,TRUE,99.798666,8.623688
1430,41801,หมวดทางหลวงนนทบุรี,NULL,TRUE,100.532772,13.819893
1792,53602,หมวดทางหลวงน่าน,NULL,TRUE,100.7064549,21.80966217
1793,53603,หมวดทางหลวงน้ำมวบ,NULL,TRUE,100.7815846,19.01610119
1440,63604,หมวดทางหลวงน้ำขุ่น,NULL,TRUE,104.931055,14.613199
1441,55803,หมวดทางหลวงน้ำปาด,NULL,TRUE,100.7140317,17.74922823
1848,62103,หมวดทางหลวงน้ำพอง,NULL,TRUE,102.832473,16.499906
1439,62303,หมวดทางหลวงน้ำโสม,NULL,TRUE,102.2592517,17.83775923
1550,51901,หมวดทางหลวงพิจิตร,NULL,TRUE,100.3345328,16.43408303
1819,51101,หมวดทางหลวงพิษณุโลก,NULL,TRUE,100.3034815,16.81712878
1551,55704,หมวดทางหลวงพิชัย,NULL,TRUE,100.2392698,17.26035033
1552,63202,หมวดทางหลวงพิบูลมังสาหาร,NULL,TRUE,105.280633,15.166515
1915,41501,หมวดทางหลวงพุทธมณฑล,NULL,TRUE,100.315393,13.70510961
1555,61707,หมวดทางหลวงพุทไธสง,NULL,TRUE,103.052922,15.542214
1556,32502,หมวดทางหลวงพุนพิน,NULL,TRUE,99.15291,9.14806
1537,43703,หมวดทางหลวงพยุหะคีรี,NULL,TRUE,100.1342706,15.46523882
1538,43301,หมวดทางหลวงพรหมบุรี,NULL,TRUE,100.4392104,14.8668997
1806,64602,หมวดทางหลวงพระธาตุบังพวน,NULL,TRUE,102.683448,17.74259
1847,62102,หมวดทางหลวงพระลับ,NULL,TRUE,102.813454,16.763481
1542,41704,หมวดทางหลวงพระสมุทรเจดีย์,NULL,TRUE,100.55487,13.60454
1778,52301,หมวดทางหลวงพระบาท,NULL,TRUE,,
1539,41301,หมวดทางหลวงพระนครศรีอยุธยาที่ 1,NULL,TRUE,100.587945,14.352538
2013,41306,หมวดทางหลวงพระนครศรีอยุธยาที่2,NULL,TRUE,100.587754,14.352689
1541,43205,หมวดทางหลวงพระพุทธบาท,NULL,TRUE,100.7919006,14.72760721
1543,51207,หมวดทางหลวงพรานกระต่าย,NULL,TRUE,99.58307277,16.6687164
1544,52705,หมวดทางหลวงพร้าว,NULL,TRUE,99.19053399,19.31925656
1545,62801,หมวดทางหลวงพล,NULL,TRUE,102.607418,15.811598
1938,42301,หมวดทางหลวงพลับพลา,NULL,TRUE,102.145557,12.620824
2018,43104,หมวดทางหลวงพัฒนานิคม,NULL,TRUE,100.947965,14.888885
1548,32701,หมวดทางหลวงพังงา,NULL,TRUE,98.505631,8.426703
1547,64202,หมวดทางหลวงพังโคน,NULL,TRUE,103.688377,17.397531
2009,26106,หมวดทางหลวงพัทยา,NULL,TRUE,100.984393,13.117279
1549,31401,หมวดทางหลวงพัทลุง,NULL,TRUE,100.8069041,14.81669563
1449,33104,หมวดทางหลวงพะโต๊ะ,NULL,TRUE,98.78905028,9.81603571
1546,53501,หมวดทางหลวงพะเยา,NULL,TRUE,99.83157042,19.09030337
2002,26104,หมวดทางหลวงพานทอง,NULL,TRUE,100.071865,7.614615
1531,32904,หมวดทางหลวงพนม,NULL,TRUE,98.560687,8.89686
1532,44503,หมวดทางหลวงพนมทวน,NULL,TRUE,99.8017275,14.2347121
2038,42105,หมวดทางหลวงพนมสารคาม,NULL,TRUE,101.49201,13.747435
2033,42204,หมวดทางหลวงพนัสนิคม,NULL,TRUE,101.269689,13.33058073
1863,63204,หมวดทางหลวงโขงเจียม,NULL,TRUE,105.498083,15.56855
1270,64103,หมวดทางหลวงโคกศรีสุพรรณ,NULL,TRUE,104.282498,17.042905
1844,55503,หมวดทางหลวงโคกงาม,NULL,TRUE,101.247238,17.35927
1885,43102,หมวดทางหลวงโคกตูม,NULL,TRUE,100.6563045,14.79873644
1271,43105,หมวดทางหลวงโคกสำโรง,NULL,TRUE,100.8203071,15.07621427
1269,31303,หมวดทางหลวงโคกโพธิ์,NULL,TRUE,101.09464,6.73056
1268,43505,หมวดทางหลวงโคกเจริญ,NULL,TRUE,100.8764525,15.42500137
1842,55501,หมวดทางหลวงโป่งชี,NULL,TRUE,101.159671,17.20332
1856,62604,หมวดทางหลวงโป่งนก,NULL,TRUE,101.445645,15.82457
1267,62201,หมวดทางหลวงโกสุมพิสัย,NULL,TRUE,103.03887,16.250028
2020,51702,หมวดทางหลวงโกสัมพีนคร,NULL,TRUE,99.400069,16.609128
1870,61402,หมวดทางหลวงโชคชัย,NULL,TRUE,102.189817,14.84654585
1850,62702,หมวดทางหลวงโนนหัน,NULL,TRUE,101.9895149,16.61792936
1275,62902,หมวดทางหลวงโนนสัง,NULL,TRUE,102.5847161,16.9003219
1276,61105,หมวดทางหลวงโนนสูง,NULL,TRUE,102.414422,15.255917
1274,61104,หมวดทางหลวงโนนไทย,NULL,TRUE,102.059274,15.215729
1273,61103,หมวดทางหลวงโนนแดง,NULL,TRUE,102.5512995,15.41293897
1280,44803,หมวดทางหลวงโพธิ์ทอง,NULL,TRUE,100.4517894,14.48667813
1279,33502,หมวดทางหลวงโพธาราม,NULL,TRUE,99.852622,13.641891
1281,63505,หมวดทางหลวงโพนทอง,NULL,TRUE,103.962452,16.291313
1282,64604,หมวดทางหลวงโพนพิสัย,NULL,TRUE,103.082744,21.024836
1286,41803,หมวดทางหลวงไทรน้อย,NULL,TRUE,100.4161443,13.94188313
1285,44406,หมวดทางหลวงไทรโยค,NULL,TRUE,99.08452929,14.21227953
1820,51102,หมวดทางหลวงไผ่ขอดอน,NULL,TRUE,100.1877452,16.91221447
1283,52703,หมวดทางหลวงไชยปราการ,NULL,TRUE,99.12851695,19.62184756
1284,62403,หมวดทางหลวงไชยวาน,NULL,TRUE,103.2356009,17.22803347
1288,43804,หมวดทางหลวงไพศาลี,NULL,TRUE,100.66253,15.59855062
1287,63602,หมวดทางหลวงไพรบึง,NULL,TRUE,104.355672,14.731312
1190,63506,หมวดทางหลวงเมืองสรวง,NULL,TRUE,151.219444,15.81939
1916,41502,หมวดทางหลวงเศรษฐกิจ,NULL,TRUE,100.289777,13.615778
1649,63404,หมวดทางหลวงเขมราฐ,NULL,TRUE,105.205408,16.038976
1858,62202,หมวดทางหลวงเขวา,NULL,TRUE,151.205379,16.147422
2022,63106,หมวดทางหลวงเขื่องใน,NULL,TRUE,104.54872,15.391142
1652,42306,หมวดทางหลวงเขาคิชฌกูฎ,NULL,TRUE,102.038425,12.923529
2017,42806,หมวดทางหลวงเขาคันทรง,NULL,TRUE,101.145421,13.107373
1831,55102,หมวดทางหลวงเขาค้อ,NULL,TRUE,100.991796,16.570326
1655,33801,หมวดทางหลวงเขาย้อย,NULL,TRUE,99.823866,13.242476
1653,61906,หมวดทางหลวงเขาฉกรรจ์,NULL,TRUE,102.092403,13.64803
1827,51905,หมวดทางหลวงเขาทราย,NULL,TRUE,100.6308719,16.15120076
1886,43103,หมวดทางหลวงเขาพระงาม,NULL,TRUE,100.6080681,14.90861534
1654,32303,หมวดทางหลวงเขาพนม,NULL,TRUE,99.04493958,8.25755964
1936,42803,หมวดทางหลวงเขาไม้แก้ว,NULL,TRUE,101.046324,12.950632
1826,51904,หมวดทางหลวงเขาเจ็ดลูก,NULL,TRUE,100.6162067,16.25034692
2016,42805,หมวดทางหลวงเขาเขียว,NULL,TRUE,101.004523,13.210166
1222,44105,หมวดทางหลวงเดิมบางนางบวช,NULL,TRUE,100.0698385,14.86097957
1251,63201,หมวดทางหลวงเดชอุดม,NULL,TRUE,104.955896,14.862079
1252,53102,หมวดทางหลวงเด่นชัย,NULL,TRUE,100.0668688,17.96882573
1657,32903,หมวดทางหลวงเคียนซา,NULL,TRUE,99.160044,8.835641
1250,64304,หมวดทางหลวงเซกา,NULL,TRUE,103.955468,17.929032
1194,63905,หมวดทางหลวงเลิงนกทา,NULL,TRUE,104.545334,16.219011
1841,55405,หมวดทางหลวงเลย,NULL,TRUE,101.7288949,17.44607464
1193,44506,หมวดทางหลวงเลาขวัญ,NULL,TRUE,99.74134855,14.55572014
1955,32901,หมวดทางหลวงเวียงสระ,NULL,TRUE,99.35216,8.631547
1791,53601,หมวดทางหลวงเวียงสา,NULL,TRUE,100.7385618,21.62476996
1195,53703,หมวดทางหลวงเวียงเชียงรุ้ง,NULL,TRUE,99.99891348,19.93194752
1244,52706,หมวดทางหลวงเวียงแหง,NULL,TRUE,98.8854334,19.72016867
1196,53704,หมวดทางหลวงเวียงแก่น,NULL,TRUE,100.5088876,20.06393879
1659,61404,หมวดทางหลวงเฉลิมพระเกียรติ,NULL,TRUE,102.3045039,15.00799795
1976,43201,หมวดทางหลวงเฉลิมพระเกียรติ (สระบุรี),NULL,TRUE,100.907901,14.549958
1982,53904,หมวดทางหลวงเฉลิมพระเกียรติ (น่าน),NULL,TRUE,101.0872941,19.5808554
2024,63504,หมวดทางหลวงเกษตรวิสัย,NULL,TRUE,103.579527,15.674026
1647,62704,หมวดทางหลวงเกษตรสมบูรณ์,NULL,TRUE,102.017745,16.303438
1648,32803,หมวดทางหลวงเกาะสมุย,NULL,TRUE,100.014585,9.566291
1852,62302,หมวดทางหลวงเก่าน้อย,NULL,TRUE,102.79239,17.441415
1227,53701,หมวดทางหลวงเทิง,NULL,TRUE,100.1971001,19.68923338
1223,52304,หมวดทางหลวงเถิน,NULL,TRUE,99.23887108,17.64239678
1965,31904,หมวดทางหลวงเทพา,NULL,TRUE,100.95243,6.80205
1224,62607,หมวดทางหลวงเทพสถิต,NULL,TRUE,101.430729,15.384367
1234,63503,หมวดทางหลวงเสลภูมิ,NULL,TRUE,103.937005,16.031247
1233,41304,หมวดทางหลวงเสนา,NULL,TRUE,100.413221,14.317303
1946,42601,หมวดทางหลวงเชิงเนิน,NULL,TRUE,101.289082,12.675927
1668,53508,หมวดทางหลวงเชียงม่วน,NULL,TRUE,100.2573428,21.94634268
1664,53705,หมวดทางหลวงเชียงของ,NULL,TRUE,100.4049861,20.23268034
1667,52702,หมวดทางหลวงเชียงดาว(ปิงโค้ง),NULL,TRUE,98.99330904,19.45586365
1665,55406,หมวดทางหลวงเชียงคาน,NULL,TRUE,101.6544416,17.8885144
1666,53507,หมวดทางหลวงเชียงคำ,NULL,TRUE,100.3293636,19.46477562
1669,62105,หมวดทางหลวงเชียงยืน,NULL,TRUE,103.105672,16.406124
1797,53301,หมวดทางหลวงเชียงราย,NULL,TRUE,99.84731067,19.91682703
1663,53902,หมวดทางหลวงเชียงกลาง,NULL,TRUE,100.8649464,19.32066561
1661,53706,หมวดทางหลวงเชียงแสน,NULL,TRUE,100.1379734,20.2220867
1662,52201,หมวดทางหลวงเชียงใหม่,NULL,TRUE,99.039716,21.762989
1968,31205,หมวดทางหลวงเบตง,NULL,TRUE,101.0719,5.78603
1910,44604,หมวดทางหลวงเนินขาม,NULL,TRUE,99.91467257,14.95784899
1878,61802,หมวดทางหลวงเนินหอม,NULL,TRUE,101.3694736,14.18010722
1189,62404,หมวดทางหลวงเพ็ญ,NULL,TRUE,102.917803,17.727167
1238,52803,หมวดทางหลวงแจ้ห่ม,NULL,TRUE,99.55988409,21.71759505
1253,53605,หมวดทางหลวงแม่จริม,NULL,TRUE,100.9912195,21.67237162
1254,53304,หมวดทางหลวงแม่จัน,NULL,TRUE,99.86044685,20.15680877
1257,51403,หมวดทางหลวงแม่ระมาด,NULL,TRUE,98.52792924,16.98241243
1799,53303,หมวดทางหลวงแม่ลาว,NULL,TRUE,99.67977716,19.74720661
1789,52602,หมวดทางหลวงแม่ลาน้อย,NULL,TRUE,97.93441327,21.53496056
1261,43706,หมวดทางหลวงแม่วงก์,NULL,TRUE,99.59637569,15.88818458
1790,52604,หมวดทางหลวงแม่ฮ่องสอน,NULL,TRUE,97.96735209,19.3635126
2042,52401,หมวดทางหลวงแม่ทา,NULL,TRUE,99152258,18465298
1981,51202,หมวดทางหลวงแม่ท้อ,NULL,TRUE,99.02838335,16.79231061
1825,51308,หมวดทางหลวงแม่สิน,NULL,TRUE,99.80359175,17.76171972
1800,53306,หมวดทางหลวงแม่สรวย,NULL,TRUE,99.47764072,19.51000263
1810,51204,หมวดทางหลวงแม่สลิด,NULL,TRUE,99.12965478,17.15341636
1264,52601,หมวดทางหลวงแม่สะเรียง,NULL,TRUE,97.93750994,21.21073256
1265,53305,หมวดทางหลวงแม่สาย,NULL,TRUE,99.88416765,20.32658516
1263,51401,หมวดทางหลวงแม่สอด,NULL,TRUE,98.75376927,16.7638263
1256,52305,หมวดทางหลวงแม่พริก,NULL,TRUE,99.148937,17.40238773
2060,52105,หมวดทางหลวงแม่แจ่ม,NULL,TRUE,98.39210607,21.27259222
1785,52701,หมวดทางหลวงแม่แตง,NULL,TRUE,98.81899281,19.10349163
1242,53502,หมวดทางหลวงแม่ใจ,NULL,TRUE,99.78272818,19.38507285
1835,55106,หมวดทางหลวงแคมป์สน,NULL,TRUE,101.025322,16.769002
2008,26105,หมวดทางหลวงแหลมฉบัง,NULL,TRUE,101.027475,13.345934
1945,42504,หมวดทางหลวงแหลมกลัด,NULL,TRUE,102.753904,12.046679
1237,42605,หมวดทางหลวงแกลง,NULL,TRUE,101.609974,12.754716
1901,43206,หมวดทางหลวงแก่งคอย,NULL,TRUE,101.0390742,14.59571563
1952,33804,หมวดทางหลวงแก่งกระจาน,NULL,TRUE,99.672523,12.778495
1822,51502,หมวดทางหลวงแก่งโสภา,NULL,TRUE,100.7782174,16.8719916
1235,62705,หมวดทางหลวงแก้งคร้อ,NULL,TRUE,102.277859,16.075648
1928,41903,หมวดทางหลวงแสมดำ,NULL,TRUE,100.435515,13.659095
1788,53101,หมวดทางหลวงแพร่,NULL,TRUE,100.1960712,21.20462604
73,260,กองทางหลวงพิเศษระหว่างเมือง,INTER-CITY MOTORWAY DIVISION,TRUE,,
51,520,สำนักงานทางหลวงที่ 1 (เชียงใหม่),OFFICE OF HIGHWAYS 1 (CHIANG MAI),TRUE,,
60,610,สำนักงานทางหลวงที่ 10 (นครราชสีมา),OFFICE OF HIGHWAYS 10 (NAKHON RATCHASIMA),TRUE,,
61,430,สำนักงานทางหลวงที่ 11 (ลพบุรี),OFFICE OF HIGHWAYS 11 (LOP BURI),TRUE,,
62,440,สำนักงานทางหลวงที่ 12 (สุพรรณบุรี),OFFICE OF HIGHWAYS 12 (SUPHAN BURI),TRUE,,
75,410,สำนักงานทางหลวงที่ 13 (กรุงเทพ),OFFICE OF HIGHWAYS 13 (BANGKOK),TRUE,,
64,420,สำนักงานทางหลวงที่ 14 (ชลบุรี),OFFICE OF HIGHWAYS 14 (CHON BURI),TRUE,,
65,330,สำนักงานทางหลวงที่ 15 (ประจวบคีรีขันธ์),OFFICE OF HIGHWAYS 15 (PRACHUAP KHIRI KHAN),TRUE,,
66,320,สำนักงานทางหลวงที่ 16 (นครศรีธรรมราช),OFFICE OF HIGHWAYS 16 (NAKHON SI THAMMARAT),TRUE,,
67,156,สำนักงานทางหลวงที่ 17 (กระบี่),OFFICE OF HIGHWAYS 17 (KRABI),TRUE,,
68,310,สำนักงานทางหลวงที่ 18 (สงขลา),OFFICE OF HIGHWAYS 18 (SONGKHLA),TRUE,,
52,530,สำนักงานทางหลวงที่ 2 (แพร่),OFFICE OF HIGHWAYS 2 (PHRAE),TRUE,,
53,640,สำนักงานทางหลวงที่ 3 (สกลนคร),OFFICE OF HIGHWAYS 3 (SAKON NAKHON),TRUE,,
54,152,สำนักงานทางหลวงที่ 4 (ตาก),OFFICE OF HIGHWAYS 4 (TAK),TRUE,,
55,510,สำนักงานทางหลวงที่ 5 (พิษณุโลก),OFFICE OF HIGHWAYS 5 (PHITSANULOK),TRUE,,
56,550,สำนักงานทางหลวงที่ 6 (เพชรบูรณ์),OFFICE OF HIGHWAYS 6 (PHETCHABUN),TRUE,,
57,620,สำนักงานทางหลวงที่ 7 (ขอนแก่น),OFFICE OF HIGHWAYS 7 (KHON KAEN),TRUE,,
58,155,สำนักงานทางหลวงที่ 8 (มหาสารคาม),OFFICE OF HIGHWAYS 8 (MAHA SARAKHAM),TRUE,,
59,630,สำนักงานทางหลวงที่ 9 (อุบลราชธานี),OFFICE OF HIGHWAYS 9 (UBON RATCHATHANI),TRUE,,
74,90,บริษัททางยกระดับดอนเมือง จำกัดมหาชน,DON MUANG TOLLWAY,TRUE,,
455,99,บริษัททางยกระดับดอนเมือง จำกัดมหาชน,DON MUANG TOLLWAY,TRUE,100.589329,13.896708
